{"type": "FeatureCollection", "features": [ {"type": "Feature", "properties": {"norad_id": 66916, "name": "HULIANWANG DIGUI-106", "group": "last-30-days", "lat": -39.45282156350447, "lon": 53.17438281968669, "alt_km": 880.2358392169635, "timestamp": "2025-12-17T17:50:17.975084+00:00", "meta": {"OBJECT_NAME": "HULIANWANG DIGUI-106", "OBJECT_ID": "2025-285B", "EPOCH": "2025-12-17T07:51:09.234144", "MEAN_MOTION": 14.03701575, "ECCENTRICITY": 0.00067813, "INCLINATION": 50.0055, "RA_OF_ASC_NODE": 98.5657, "ARG_OF_PERICENTER": 291.1797, "MEAN_ANOMALY": 68.8383, "EPHEMERIS_TYPE": 0, "CLASSIFICATION_TYPE": "U", "NORAD_CAT_ID": 66916, "ELEMENT_SET_NO": 999, "REV_AT_EPOCH": 155, "BSTAR": -1.7121192e-05, "MEAN_MOTION_DOT": -1.78e-06, "MEAN_MOTION_DDOT": 0}, "tle": {"line1": "1 66916U 25285B   25351.32719021 -.00000178  00000+0 -17121-4 0  9994", "line2": "2 66916  50.0055  98.5657 0006781 291.1797  68.8383 14.03701575  1553"}}, "geometry": {"type": "Point", "coordinates": [53.17438281968669, -39.45282156350447]}}, {"type": "Feature", "properties": {"norad_id": 66917, "name": "HULIANWANG DIGUI-107", "group": "last-30-days", "lat": -33.62363787933866, "lon": 62.90842996986186, "alt_km": 879.5864266496101, "timestamp": "2025-12-17T17:50:17.975095+00:00", "meta": {"OBJECT_NAME": "HULIANWANG DIGUI-107", "OBJECT_ID": "2025-285C", "EPOCH": "2025-12-17T07:48:21.263040", "MEAN_MOTION": 14.03661777, "ECCENTRICITY": 0.00074477, "INCLINATION": 50.0021, "RA_OF_ASC_NODE": 98.5497, "ARG_OF_PERICENTER": 300.6912, "MEAN_ANOMALY": 59.3258, "EPHEMERIS_TYPE": 0, "CLASSIFICATION_TYPE": "U", "NORAD_CAT_ID": 66917, "ELEMENT_SET_NO": 999, "REV_AT_EPOCH": 155, "BSTAR": -1.6522526e-05, "MEAN_MOTION_DOT": -1.77e-06, "MEAN_MOTION_DDOT": 0}, "tle": {"line1": "1 66917U 25285C   25351.32524610 -.00000177  00000+0 -16523-4 0  9997", "line2": "2 66917  50.0021  98.5497 0007447 300.6912  59.3258 14.03661777  1559"}}, "geometry": {"type": "Point", "coordinates": [62.90842996986186, -33.62363787933866]}}, {"type": "Feature", "properties": {"norad_id": 66918, "name": "HULIANWANG DIGUI-108", "group": "last-30-days", "lat": -30.626985537465966, "lon": 67.0393106363315, "alt_km": 880.4682087865804, "timestamp": "2025-12-17T17:50:17.975117+00:00", "meta": {"OBJECT_NAME": "HULIANWANG DIGUI-108", "OBJECT_ID": "2025-285D", "EPOCH": "2025-12-17T07:47:01.120992", "MEAN_MOTION": 14.03600792, "ECCENTRICITY": 0.00065802, "INCLINATION": 50.0043, "RA_OF_ASC_NODE": 98.548, "ARG_OF_PERICENTER": 295.1283, "MEAN_ANOMALY": 64.8939, "EPHEMERIS_TYPE": 0, "CLASSIFICATION_TYPE": "U", "NORAD_CAT_ID": 66918, "ELEMENT_SET_NO": 999, "REV_AT_EPOCH": 155, "BSTAR": -7.235383e-06, "MEAN_MOTION_DOT": -1.63e-06, "MEAN_MOTION_DDOT": 0}, "tle": {"line1": "1 66918U 25285D   25351.32431853 -.00000163  00000+0 -72354-5 0  9994", "line2": "2 66918  50.0043  98.5480 0006580 295.1283  64.8939 14.03600792  1559"}}, "geometry": {"type": "Point", "coordinates": [67.0393106363315, -30.626985537465966]}}, {"type": "Feature", "properties": {"norad_id": 66919, "name": "HULIANWANG DIGUI-109", "group": "last-30-days", "lat": -26.628114153530298, "lon": 71.94569479293739, "alt_km": 877.9525202894283, "timestamp": "2025-12-17T17:50:17.975128+00:00", "meta": {"OBJECT_NAME": "HULIANWANG DIGUI-109", "OBJECT_ID": "2025-285E", "EPOCH": "2025-12-17T07:45:29.617344", "MEAN_MOTION": 14.03955539, "ECCENTRICITY": 0.0007834, "INCLINATION": 50.0067, "RA_OF_ASC_NODE": 98.5466, "ARG_OF_PERICENTER": 306.1561, "MEAN_ANOMALY": 53.8618, "EPHEMERIS_TYPE": 0, "CLASSIFICATION_TYPE": "U", "NORAD_CAT_ID": 66919, "ELEMENT_SET_NO": 999, "REV_AT_EPOCH": 155, "BSTAR": -1.5305345e-05, "MEAN_MOTION_DOT": -1.76e-06, "MEAN_MOTION_DDOT": 0}, "tle": {"line1": "1 66919U 25285E   25351.32325946 -.00000176  00000+0 -15305-4 0  9996", "line2": "2 66919  50.0067  98.5466 0007834 306.1561  53.8618 14.03955539  1559"}}, "geometry": {"type": "Point", "coordinates": [71.94569479293739, -26.628114153530298]}}, {"type": "Feature", "properties": {"norad_id": 66920, "name": "HULIANWANG DIGUI-110", "group": "last-30-days", "lat": -22.93447463256652, "lon": 76.02944489948663, "alt_km": 879.0322495374512, "timestamp": "2025-12-17T17:50:17.975145+00:00", "meta": {"OBJECT_NAME": "HULIANWANG DIGUI-110", "OBJECT_ID": "2025-285F", "EPOCH": "2025-12-17T07:44:03.384960", "MEAN_MOTION": 14.04069072, "ECCENTRICITY": 0.00055869, "INCLINATION": 50.0111, "RA_OF_ASC_NODE": 98.5464, "ARG_OF_PERICENTER": 303.4659, "MEAN_ANOMALY": 56.5711, "EPHEMERIS_TYPE": 0, "CLASSIFICATION_TYPE": "U", "NORAD_CAT_ID": 66920, "ELEMENT_SET_NO": 999, "REV_AT_EPOCH": 155, "BSTAR": 0.00017936937, "MEAN_MOTION_DOT": 1.34e-06, "MEAN_MOTION_DDOT": 0}, "tle": {"line1": "1 66920U 25285F   25351.32226140  .00000134  00000+0  17937-3 0  9998", "line2": "2 66920  50.0111  98.5464 0005586 303.4659  56.5711 14.04069072  1552"}}, "geometry": {"type": "Point", "coordinates": [76.02944489948663, -22.93447463256652]}}, {"type": "Feature", "properties": {"norad_id": 66921, "name": "HULIANWANG DIGUI-111", "group": "last-30-days", "lat": -18.948753010147037, "lon": 80.07632833853079, "alt_km": 876.1839869152691, "timestamp": "2025-12-17T17:50:17.975157+00:00", "meta": {"OBJECT_NAME": "HULIANWANG DIGUI-111", "OBJECT_ID": "2025-285G", "EPOCH": "2025-12-16T16:20:37.752864", "MEAN_MOTION": 14.04579189, "ECCENTRICITY": 0.00066737, "INCLINATION": 50.0126, "RA_OF_ASC_NODE": 101.1554, "ARG_OF_PERICENTER": 307.6812, "MEAN_ANOMALY": 52.3487, "EPHEMERIS_TYPE": 0, "CLASSIFICATION_TYPE": "U", "NORAD_CAT_ID": 66921, "ELEMENT_SET_NO": 999, "REV_AT_EPOCH": 146, "BSTAR": -8.102427e-06, "MEAN_MOTION_DOT": -1.65e-06, "MEAN_MOTION_DDOT": 0}, "tle": {"line1": "1 66921U 25285G   25350.68099251 -.00000165  00000+0 -81024-5 0  9994", "line2": "2 66921  50.0126 101.1554 0006673 307.6812  52.3487 14.04579189  1464"}}, "geometry": {"type": "Point", "coordinates": [80.07632833853079, -18.948753010147037]}}, {"type": "Feature", "properties": {"norad_id": 66922, "name": "HULIANWANG DIGUI-112", "group": "last-30-days", "lat": -15.084586362320731, "lon": 83.73186880476574, "alt_km": 875.0787760415524, "timestamp": "2025-12-17T17:50:17.975168+00:00", "meta": {"OBJECT_NAME": "HULIANWANG DIGUI-112", "OBJECT_ID": "2025-285H", "EPOCH": "2025-12-17T07:41:18.875904", "MEAN_MOTION": 14.04783577, "ECCENTRICITY": 0.00065795, "INCLINATION": 50.0088, "RA_OF_ASC_NODE": 98.533, "ARG_OF_PERICENTER": 318.1034, "MEAN_ANOMALY": 41.9367, "EPHEMERIS_TYPE": 0, "CLASSIFICATION_TYPE": "U", "NORAD_CAT_ID": 66922, "ELEMENT_SET_NO": 999, "REV_AT_EPOCH": 155, "BSTAR": 4.115038e-06, "MEAN_MOTION_DOT": -1.45e-06, "MEAN_MOTION_DDOT": 0}, "tle": {"line1": "1 66922U 25285H   25351.32035736 -.00000145  00000+0  41150-5 0  9998", "line2": "2 66922  50.0088  98.5330 0006579 318.1034  41.9367 14.04783577  1550"}}, "geometry": {"type": "Point", "coordinates": [83.73186880476574, -15.084586362320731]}}, {"type": "Feature", "properties": {"norad_id": 66923, "name": "HULIANWANG DIGUI-113", "group": "last-30-days", "lat": -12.093260783191953, "lon": 86.44015985179212, "alt_km": 876.0269577609279, "timestamp": "2025-12-17T17:50:17.975178+00:00", "meta": {"OBJECT_NAME": "HULIANWANG DIGUI-113", "OBJECT_ID": "2025-285J", "EPOCH": "2025-12-17T07:40:11.590176", "MEAN_MOTION": 14.04809911, "ECCENTRICITY": 0.00057999, "INCLINATION": 50.0149, "RA_OF_ASC_NODE": 98.527, "ARG_OF_PERICENTER": 300.6244, "MEAN_ANOMALY": 59.4089, "EPHEMERIS_TYPE": 0, "CLASSIFICATION_TYPE": "U", "NORAD_CAT_ID": 66923, "ELEMENT_SET_NO": 999, "REV_AT_EPOCH": 155, "BSTAR": 9.0636848e-05, "MEAN_MOTION_DOT": -6e-08, "MEAN_MOTION_DDOT": 0}, "tle": {"line1": "1 66923U 25285J   25351.31957859 -.00000006  00000+0  90637-4 0  9996", "line2": "2 66923  50.0149  98.5270 0005799 300.6244  59.4089 14.04809911  1550"}}, "geometry": {"type": "Point", "coordinates": [86.44015985179212, -12.093260783191953]}}, {"type": "Feature", "properties": {"norad_id": 66924, "name": "CZ-8A R/B", "group": "last-30-days", "lat": -49.96894411331084, "lon": 7.013179655089672, "alt_km": 865.920763571402, "timestamp": "2025-12-17T17:50:17.975188+00:00", "meta": {"OBJECT_NAME": "CZ-8A R/B", "OBJECT_ID": "2025-285K", "EPOCH": "2025-12-17T08:12:02.828160", "MEAN_MOTION": 14.30503671, "ECCENTRICITY": 0.01192906, "INCLINATION": 50.0071, "RA_OF_ASC_NODE": 96.5651, "ARG_OF_PERICENTER": 122.9675, "MEAN_ANOMALY": 238.2775, "EPHEMERIS_TYPE": 0, "CLASSIFICATION_TYPE": "U", "NORAD_CAT_ID": 66924, "ELEMENT_SET_NO": 999, "REV_AT_EPOCH": 158, "BSTAR": 5.349321e-05, "MEAN_MOTION_DOT": -1.5e-07, "MEAN_MOTION_DDOT": 0}, "tle": {"line1": "1 66924U 25285K   25351.34169940 -.00000015  00000+0  53493-4 0  9995", "line2": "2 66924  50.0071  96.5651 0119290 122.9675 238.2775 14.30503671  1586"}}, "geometry": {"type": "Point", "coordinates": [7.013179655089672, -49.96894411331084]}}, {"type": "Feature", "properties": {"norad_id": 66925, "name": "STARLINK-35945", "group": "last-30-days", "lat": -8.297913067900025, "lon": 19.02916322802027, "alt_km": 318.4222688068894, "timestamp": "2025-12-17T17:50:17.975199+00:00", "meta": {"OBJECT_NAME": "STARLINK-35945", "OBJECT_ID": "2025-286A", "EPOCH": "2025-12-17T06:00:00.999648", "MEAN_MOTION": 15.86301635, "ECCENTRICITY": 7.238e-05, "INCLINATION": 53.1571, "RA_OF_ASC_NODE": 27.7978, "ARG_OF_PERICENTER": 85.131, "MEAN_ANOMALY": 327.328, "EPHEMERIS_TYPE": 0, "CLASSIFICATION_TYPE": "U", "NORAD_CAT_ID": 66925, "ELEMENT_SET_NO": 999, "REV_AT_EPOCH": 271, "BSTAR": -0.0054815148, "MEAN_MOTION_DOT": -0.01242533, "MEAN_MOTION_DDOT": 0}, "tle": {"line1": "1 66925U 25286A   25351.25001157 -.01242533  00000+0 -54815-2 0  9994", "line2": "2 66925  53.1571  27.7978 0000723  85.1310 327.3280 15.86301635  2715"}}, "geometry": {"type": "Point", "coordinates": [19.02916322802027, -8.297913067900025]}}]}